{
  "norad_id": 46782,
  "name": "STARLINK-1835",
  "history": [
    {
      "epoch": "2026-03-28T22:00:01.999584",
      "apogee_km": 385.29114294392457,
      "perigee_km": 374.2265752117737,
      "latitude_deg": 6.960584853822845,
      "longitude_deg": 26.202221759827808,
      "semi_major_axis_km": 6757.895859077848,
      "eccentricity": 0.00081864,
      "inclination_deg": 53.0435,
      "raan_deg": 181.0726,
      "arg_perigee_deg": 40.4022,
      "mean_anomaly_deg": 63.3033,
      "mean_motion_rev_day": 15.6273565
    },
    {
      "epoch": "2026-03-29T05:14:00.156768",
      "apogee_km": 385.06728731525163,
      "perigee_km": 374.2129457107085,
      "latitude_deg": 53.0317330705114,
      "longitude_deg": 55.1335075199604,
      "semi_major_axis_km": 6757.77711651298,
      "eccentricity": 0.0008031,
      "inclination_deg": 53.0447,
      "raan_deg": 179.5986,
      "arg_perigee_deg": 39.409,
      "mean_anomaly_deg": 320.7506,
      "mean_motion_rev_day": 15.62776839
    }
  ]
}